[{"OBJECT_NAME":"UFO 8 (USA 138)","OBJECT_ID":"1998-016A","EPOCH":"2026-04-05T15:10:50.554848","MEAN_MOTION":1.00281896,"ECCENTRICITY":0.0006754,"INCLINATION":11.0444,"RA_OF_ASC_NODE":23.1974,"ARG_OF_PERICENTER":277.5865,"MEAN_ANOMALY":273.3454,"EPHEMERIS_TYPE":0,"CLASSIFICATION_TYPE":"U","NORAD_CAT_ID":25258,"ELEMENT_SET_NO":999,"REV_AT_EPOCH":10313,"BSTAR":0,"MEAN_MOTION_DOT":-1.9e-6,"MEAN_MOTION_DDOT":0},{"OBJECT_NAME":"COSMOS 2350","OBJECT_ID":"1998-025A","EPOCH":"2026-04-05T18:39:38.884032","MEAN_MOTION":1.0028608,"ECCENTRICITY":0.000442,"INCLINATION":13.9374,"RA_OF_ASC_NODE":4.3765,"ARG_OF_PERICENTER":183.9723,"MEAN_ANOMALY":359.2307,"EPHEMERIS_TYPE":0,"CLASSIFICATION_TYPE":"U","NORAD_CAT_ID":25315,"ELEMENT_SET_NO":999,"REV_AT_EPOCH":10228,"BSTAR":0,"MEAN_MOTION_DOT":-9.7e-7,"MEAN_MOTION_DDOT":0},{"OBJECT_NAME":"SL-12 R/B(2)","OBJECT_ID":"1998-025D","EPOCH":"2026-04-05T11:38:38.796864","MEAN_MOTION":1.00057154,"ECCENTRICITY":0.0029346,"INCLINATION":13.9615,"RA_OF_ASC_NODE":4.416,"ARG_OF_PERICENTER":131.6541,"MEAN_ANOMALY":68.714,"EPHEMERIS_TYPE":0,"CLASSIFICATION_TYPE":"U","NORAD_CAT_ID":25318,"ELEMENT_SET_NO":999,"REV_AT_EPOCH":10204,"BSTAR":0,"MEAN_MOTION_DOT":7.9e-7,"MEAN_MOTION_DDOT":0},{"OBJECT_NAME":"BADR-3 (ARABSAT-3A)","OBJECT_ID":"1999-009A","EPOCH":"2026-04-05T11:14:38.658336","MEAN_MOTION":1.00135491,"ECCENTRICITY":0.00073854,"INCLINATION":11.8188,"RA_OF_ASC_NODE":33.0682,"ARG_OF_PERICENTER":331.2661,"MEAN_ANOMALY":217.5644,"EPHEMERIS_TYPE":0,"CLASSIFICATION_TYPE":"U","NORAD_CAT_ID":25638,"ELEMENT_SET_NO":999,"REV_AT_EPOCH":9923,"BSTAR":0,"MEAN_MOTION_DOT":1.01e-6,"MEAN_MOTION_DDOT":0},{"OBJECT_NAME":"RADUGA-1 4","OBJECT_ID":"1999-010A","EPOCH":"2026-04-05T14:59:15.684576","MEAN_MOTION":1.00244994,"ECCENTRICITY":0.0007245,"INCLINATION":15.6205,"RA_OF_ASC_NODE":2.2299,"ARG_OF_PERICENTER":289.971,"MEAN_ANOMALY":237.9214,"EPHEMERIS_TYPE":0,"CLASSIFICATION_TYPE":"U","NORAD_CAT_ID":25642,"ELEMENT_SET_NO":999,"REV_AT_EPOCH":9922,"BSTAR":0,"MEAN_MOTION_DOT":-3.65e-6,"MEAN_MOTION_DDOT":0},{"OBJECT_NAME":"TELKOM 1","OBJECT_ID":"1999-042A","EPOCH":"2026-04-05T21:12:21.579840","MEAN_MOTION":1.00245219,"ECCENTRICITY":0.0016653,"INCLINATION":7.5021,"RA_OF_ASC_NODE":67.1157,"ARG_OF_PERICENTER":261.4344,"MEAN_ANOMALY":264.5892,"EPHEMERIS_TYPE":0,"CLASSIFICATION_TYPE":"U","NORAD_CAT_ID":25880,"ELEMENT_SET_NO":999,"REV_AT_EPOCH":9766,"BSTAR":0,"MEAN_MOTION_DOT":-1.37e-6,"MEAN_MOTION_DDOT":0},{"OBJECT_NAME":"ABS-7","OBJECT_ID":"1999-046A","EPOCH":"2026-04-05T16:58:41.856096","MEAN_MOTION":0.99980428,"ECCENTRICITY":0.0003715,"INCLINATION":6.2961,"RA_OF_ASC_NODE":71.6291,"ARG_OF_PERICENTER":281.4721,"MEAN_ANOMALY":266.2147,"EPHEMERIS_TYPE":0,"CLASSIFICATION_TYPE":"U","NORAD_CAT_ID":25894,"ELEMENT_SET_NO":999,"REV_AT_EPOCH":9635,"BSTAR":0,"MEAN_MOTION_DOT":-7.5e-7,"MEAN_MOTION_DDOT":0},{"OBJECT_NAME":"YAMAL 102","OBJECT_ID":"1999-047B","EPOCH":"2026-04-05T02:22:30.626976","MEAN_MOTION":0.99998432,"ECCENTRICITY":0.00051611,"INCLINATION":13.6353,"RA_OF_ASC_NODE":13.239,"ARG_OF_PERICENTER":351.0879,"MEAN_ANOMALY":203.7958,"EPHEMERIS_TYPE":0,"CLASSIFICATION_TYPE":"U","NORAD_CAT_ID":25897,"ELEMENT_SET_NO":999,"REV_AT_EPOCH":9726,"BSTAR":0,"MEAN_MOTION_DOT":-2.17e-6,"MEAN_MOTION_DDOT":0},{"OBJECT_NAME":"ABS-6","OBJECT_ID":"1999-053A","EPOCH":"2026-04-05T18:38:09.819456","MEAN_MOTION":1.00271952,"ECCENTRICITY":0.0002991,"INCLINATION":0.0497,"RA_OF_ASC_NODE":90.7715,"ARG_OF_PERICENTER":305.6905,"MEAN_ANOMALY":236.1402,"EPHEMERIS_TYPE":0,"CLASSIFICATION_TYPE":"U","NORAD_CAT_ID":25924,"ELEMENT_SET_NO":999,"REV_AT_EPOCH":9711,"BSTAR":0,"MEAN_MOTION_DOT":-1.18e-6,"MEAN_MOTION_DDOT":0},{"OBJECT_NAME":"UFO 10 (USA 146)","OBJECT_ID":"1999-063A","EPOCH":"2026-04-05T04:13:38.700768","MEAN_MOTION":1.00276433,"ECCENTRICITY":0.0004764,"INCLINATION":9.8503,"RA_OF_ASC_NODE":27.5931,"ARG_OF_PERICENTER":310.4565,"MEAN_ANOMALY":255.9371,"EPHEMERIS_TYPE":0,"CLASSIFICATION_TYPE":"U","NORAD_CAT_ID":25967,"ELEMENT_SET_NO":999,"REV_AT_EPOCH":9661,"BSTAR":0,"MEAN_MOTION_DOT":-1.85e-6,"MEAN_MOTION_DDOT":0},{"OBJECT_NAME":"GALAXY 10R (G-10R)","OBJECT_ID":"2000-002A","EPOCH":"2026-04-05T11:06:38.488608","MEAN_MOTION":0.99638202,"ECCENTRICITY":0.00028327,"INCLINATION":12.0606,"RA_OF_ASC_NODE":31.7635,"ARG_OF_PERICENTER":196.1943,"MEAN_ANOMALY":354.5889,"EPHEMERIS_TYPE":0,"CLASSIFICATION_TYPE":"U","NORAD_CAT_ID":26056,"ELEMENT_SET_NO":999,"REV_AT_EPOCH":9560,"BSTAR":0,"MEAN_MOTION_DOT":9.7e-7,"MEAN_MOTION_DDOT":0},{"OBJECT_NAME":"GARUDA 1","OBJECT_ID":"2000-011A","EPOCH":"2026-04-05T12:52:53.677632","MEAN_MOTION":0.9990923,"ECCENTRICITY":0.0003958,"INCLINATION":9.4772,"RA_OF_ASC_NODE":64.7613,"ARG_OF_PERICENTER":266.6499,"MEAN_ANOMALY":276.9779,"EPHEMERIS_TYPE":0,"CLASSIFICATION_TYPE":"U","NORAD_CAT_ID":26089,"ELEMENT_SET_NO":999,"REV_AT_EPOCH":4093,"BSTAR":0,"MEAN_MOTION_DOT":1.17e-6,"MEAN_MOTION_DDOT":0},{"OBJECT_NAME":"SL-12 R/B(2)","OBJECT_ID":"2000-013D","EPOCH":"2026-04-05T05:28:12.815040","MEAN_MOTION":1.00764662,"ECCENTRICITY":0.0006739,"INCLINATION":14.3156,"RA_OF_ASC_NODE":1.3736,"ARG_OF_PERICENTER":61.5531,"MEAN_ANOMALY":122.0971,"EPHEMERIS_TYPE":0,"CLASSIFICATION_TYPE":"U","NORAD_CAT_ID":26101,"ELEMENT_SET_NO":999,"REV_AT_EPOCH":9590,"BSTAR":0,"MEAN_MOTION_DOT":-2.5e-6,"MEAN_MOTION_DDOT":0},{"OBJECT_NAME":"ASIASTAR","OBJECT_ID":"2000-016A","EPOCH":"2026-04-05T19:28:59.024928","MEAN_MOTION":1.00271339,"ECCENTRICITY":0.000511,"INCLINATION":8.963,"RA_OF_ASC_NODE":58.9158,"ARG_OF_PERICENTER":327.3356,"MEAN_ANOMALY":205.1222,"EPHEMERIS_TYPE":0,"CLASSIFICATION_TYPE":"U","NORAD_CAT_ID":26107,"ELEMENT_SET_NO":999,"REV_AT_EPOCH":9519,"BSTAR":0,"MEAN_MOTION_DOT":-3.3e-6,"MEAN_MOTION_DDOT":0},{"OBJECT_NAME":"GALAXY 4R (G-4R)","OBJECT_ID":"2000-020A","EPOCH":"2026-04-05T08:15:38.702016","MEAN_MOTION":0.99828645,"ECCENTRICITY":0.00051218,"INCLINATION":12.6513,"RA_OF_ASC_NODE":24.6036,"ARG_OF_PERICENTER":249.3371,"MEAN_ANOMALY":293.6492,"EPHEMERIS_TYPE":0,"CLASSIFICATION_TYPE":"U","NORAD_CAT_ID":26298,"ELEMENT_SET_NO":999,"REV_AT_EPOCH":9489,"BSTAR":0,"MEAN_MOTION_DOT":-1.4e-7,"MEAN_MOTION_DDOT":0},{"OBJECT_NAME":"USA 149 (DSP 20)","OBJECT_ID":"2000-024A","EPOCH":"2026-04-05T12:02:38.823936","MEAN_MOTION":1.00268285,"ECCENTRICITY":0.0001581,"INCLINATION":13.117,"RA_OF_ASC_NODE":12.3647,"ARG_OF_PERICENTER":352.2037,"MEAN_ANOMALY":204.6204,"EPHEMERIS_TYPE":0,"CLASSIFICATION_TYPE":"U","NORAD_CAT_ID":26356,"ELEMENT_SET_NO":999,"REV_AT_EPOCH":3218,"BSTAR":0,"MEAN_MOTION_DOT":9.6e-7,"MEAN_MOTION_DDOT":0},{"OBJECT_NAME":"IUS R/B(2)","OBJECT_ID":"2000-024D","EPOCH":"2026-04-05T03:53:14.994240","MEAN_MOTION":0.99708119,"ECCENTRICITY":0.0005245,"INCLINATION":13.2681,"RA_OF_ASC_NODE":13.1034,"ARG_OF_PERICENTER":180.8714,"MEAN_ANOMALY":179.0848,"EPHEMERIS_TYPE":0,"CLASSIFICATION_TYPE":"U","NORAD_CAT_ID":26359,"ELEMENT_SET_NO":999,"REV_AT_EPOCH":2464,"BSTAR":0,"MEAN_MOTION_DOT":-3.38e-6,"MEAN_MOTION_DDOT":0}]
