UFO 8 (USA 138)         
1 25258U 98016A   26095.63252957 -.00000190  00000+0  00000+0 0  9996
2 25258  11.0444  23.1974 0006754 277.5865 273.3454  1.00281896103137
COSMOS 2350             
1 25315U 98025A   26095.77753338 -.00000097  00000+0  00000+0 0  9990
2 25315  13.9374   4.3765 0004420 183.9723 359.2307  1.00286080102280
SL-12 R/B(2)            
1 25318U 98025D   26095.48517126  .00000079  00000+0  00000+0 0  9993
2 25318  13.9615   4.4160 0029346 131.6541  68.7140  1.00057154102042
BADR-3 (ARABSAT-3A)     
1 25638U 99009A   26095.46850299  .00000101  00000+0  00000+0 0  9996
2 25638  11.8188  33.0682 0007385 331.2661 217.5644  1.00135491 99236
RADUGA-1 4              
1 25642U 99010A   26095.62448709 -.00000365  00000+0  00000+0 0  9993
2 25642  15.6205   2.2299 0007245 289.9710 237.9214  1.00244994 99221
TELKOM 1                
1 25880U 99042A   26095.88358310 -.00000137  00000+0  00000+0 0  9995
2 25880   7.5021  67.1157 0016653 261.4344 264.5892  1.00245219 97660
ABS-7                   
1 25894U 99046A   26095.70742889 -.00000075  00000+0  00000+0 0  9994
2 25894   6.2961  71.6291 0003715 281.4721 266.2147  0.99980428 96351
YAMAL 102               
1 25897U 99047B   26095.09896559 -.00000217  00000+0  00000+0 0  9992
2 25897  13.6353  13.2390 0005161 351.0879 203.7958  0.99998432 97269
ABS-6                   
1 25924U 99053A   26095.77650254 -.00000118  00000+0  00000+0 0  9995
2 25924   0.0497  90.7715 0002991 305.6905 236.1402  1.00271952 97115
UFO 10 (USA 146)        
1 25967U 99063A   26095.17614237 -.00000185  00000+0  00000+0 0  9992
2 25967   9.8503  27.5931 0004764 310.4565 255.9371  1.00276433 96618
GALAXY 10R (G-10R)      
1 26056U 00002A   26095.46294547  .00000097  00000+0  00000+0 0  9998
2 26056  12.0606  31.7635 0002832 196.1943 354.5889  0.99638202 95600
GARUDA 1                
1 26089U 00011A   26095.53673238  .00000117  00000+0  00000+0 0  9993
2 26089   9.4772  64.7613 0003958 266.6499 276.9779  0.99909230 40934
SL-12 R/B(2)            
1 26101U 00013D   26095.22792610 -.00000250  00000+0  00000+0 0  9991
2 26101  14.3156   1.3736 0006739  61.5531 122.0971  1.00764662 95905
ASIASTAR                
1 26107U 00016A   26095.81179427 -.00000330  00000+0  00000+0 0  9999
2 26107   8.9630  58.9158 0005110 327.3356 205.1222  1.00271339 95190
GALAXY 4R (G-4R)        
1 26298U 00020A   26095.34419794 -.00000014  00000+0  00000+0 0  9996
2 26298  12.6513  24.6036 0005121 249.3371 293.6492  0.99828645 94892
USA 149 (DSP 20)        
1 26356U 00024A   26095.50183824  .00000096  00000+0  00000+0 0  9994
2 26356  13.1170  12.3647 0001581 352.2037 204.6204  1.00268285 32181
IUS R/B(2)              
1 26359U 00024D   26095.16197910 -.00000338  00000+0  00000+0 0  9990
2 26359  13.2681  13.1034 0005245 180.8714 179.0848  0.99708119 24642
